NORAD_CAT_ID,OBJECT_NAME,OBJECT_TYPE,EPOCH,MEAN_MOTION,ECCENTRICITY,INCLINATION,RA_OF_ASC_NODE,ARG_OF_PERICENTER,MEAN_ANOMALY,BSTAR,MEAN_MOTION_DOT,MEAN_MOTION_DDOT,TLE_LINE0,TLE_LINE1,TLE_LINE2,SEMIMAJOR_AXIS,PERIOD,APOGEE,PERIGEE,DECAYED
51968.0,STARLINK-3681,PAYLOAD,2024-05-08 11:46:31,15.06406619,0.0001329,53.0519,155.5672,87.1245,272.9896,4.8888e-05,4.47e-06,0.0,0 STARLINK-3681,1 51968U 22025N   24129.49064652  .00000447  00000-0  48888-4 0  9999,2 51968  53.0519 155.5672 0001329  87.1245 272.9896 15.06406619121068,6925.328,95.592,548.114,546.273,0.0
51968.0,STARLINK-3681,PAYLOAD,2024-05-09 08:28:32,15.0640552,0.0001309,53.0516,151.6951,87.3909,272.723,0.00013827,1.779e-05,0.0,0 STARLINK-3681,1 51968U 22025N   24130.35315438  .00001779  00000-0  13827-3 0  9990,2 51968  53.0516 151.6951 0001309  87.3909 272.7230 15.06405520120091,6925.332,95.592,548.103,546.29,0.0
51968.0,STARLINK-3681,PAYLOAD,2024-05-09 18:01:46,15.06405486,0.0001231,53.051,149.9083,86.4252,273.6878,0.0002186,2.977e-05,0.0,0 STARLINK-3681,1 51968U 22025N   24130.75123599  .00002977  00000-0  21860-3 0  9996,2 51968  53.0510 149.9083 0001231  86.4252 273.6878 15.06405486121254,6925.332,95.592,548.049,546.344,0.0
51968.0,STARLINK-3681,PAYLOAD,2024-05-10 08:21:38,15.06397411,0.0001418,53.0527,147.2284,91.1956,268.9195,0.0001469,1.907e-05,0.0,0 STARLINK-3681,1 51968U 22025N   24131.34836271  .00001907  00000-0  14690-3 0  9995,2 51968  53.0527 147.2284 0001418  91.1956 268.9195 15.06397411121344,6925.356,95.592,548.204,546.239,0.0
51968.0,STARLINK-3681,PAYLOAD,2024-05-10 17:54:52,15.06396291,0.0001398,53.0526,145.4413,90.5696,269.5453,0.00010746,1.319e-05,0.0,0 STARLINK-3681,1 51968U 22025N   24131.74644525  .00001319  00000-0  10746-3 0  9993,2 51968  53.0526 145.4413 0001398  90.5696 269.5453 15.06396291120302,6925.36,95.592,548.193,546.257,0.0
51968.0,STARLINK-3681,PAYLOAD,2024-05-11 09:50:16,15.0642715,0.000144,53.0518,142.4623,91.1937,268.9217,0.0010865,0.00015951,0.0,0 STARLINK-3681,1 51968U 22025N   24132.40990882  .00015951  00000-0  10865-2 0  9995,2 51968  53.0518 142.4623 0001440  91.1937 268.9217 15.06427150121509,6925.265,95.59,548.128,546.133,0.0
51968.0,STARLINK-3681,PAYLOAD,2024-05-11 17:47:57,15.06428774,0.0001531,53.0516,140.9714,82.713,277.4033,0.0010499,0.00015403,0.0,0 STARLINK-3681,1 51968U 22025N   24132.74163699  .00015403  00000-0  10499-2 0  9995,2 51968  53.0516 140.9714 0001531  82.7130 277.4033 15.06428774120450,6925.26,95.59,548.186,546.065,0.0
51968.0,STARLINK-3681,PAYLOAD,2024-05-12 04:56:45,15.06363689,0.0001772,53.0516,138.888,22.6992,337.4075,-0.0014128,-0.00021243,0.0,0 STARLINK-3681,1 51968U 22025N   24133.20607643 -.00021243  00000-0 -14128-2 0  9993,2 51968  53.0516 138.8880 0001772  22.6992 337.4075 15.06363689121622,6925.46,95.594,548.552,546.098,0.0
51968.0,STARLINK-3681,PAYLOAD,2024-05-12 08:07:49,15.06351253,0.0001189,53.052,138.2929,96.1946,263.9179,-0.0019319,-0.00028903,0.0,0 STARLINK-3681,1 51968U 22025N   24133.33877187 -.00028903  00000-0 -19319-2 0  9996,2 51968  53.0520 138.2929 0001189  96.1946 263.9179 15.06351253120544,6925.498,95.595,548.186,546.54,0.0
51968.0,STARLINK-3681,PAYLOAD,2024-05-12 17:41:05,15.06351713,0.0001086,53.0528,136.5063,97.4962,262.615,-0.00054756,-8.417e-05,0.0,0 STARLINK-3681,1 51968U 22025N   24133.73686637 -.00008417  00000-0 -54756-3 0  9991,2 51968  53.0528 136.5063 0001086  97.4962 262.6150 15.06351713121705,6925.497,95.595,548.114,546.609,0.0
51968.0,STARLINK-3681,PAYLOAD,2024-05-13 04:49:52,15.06364341,2.68e-05,53.0524,134.4208,123.9217,236.1797,0.00088997,0.00012987,0.0,0 STARLINK-3681,1 51968U 22025N   24134.20130432  .00012987  00000-0  88997-3 0  9990,2 51968  53.0524 134.4208 0000268 123.9217 236.1797 15.06364341121779,6925.458,95.594,547.508,547.137,0.0
51968.0,STARLINK-3681,PAYLOAD,2024-05-13 09:36:30,15.06380267,0.0001756,53.0538,133.5237,106.9674,253.1507,0.0012578,0.00018493,0.0,0 STARLINK-3681,1 51968U 22025N   24134.40034867  .00018493  00000-0  12578-2 0  9996,2 51968  53.0538 133.5237 0001756 106.9674 253.1507 15.06380267120702,6925.409,95.593,548.49,546.058,0.0
51968.0,STARLINK-3681,PAYLOAD,2024-05-13 17:34:11,15.06399656,0.0001818,53.0549,132.0347,108.8489,251.2697,0.00090938,0.00013289,0.0,0 STARLINK-3681,1 51968U 22025N   24134.73208024  .00013289  00000-0  90938-3 0  9995,2 51968  53.0549 132.0347 0001818 108.8489 251.2697 15.06399656121852,6925.35,95.592,548.474,545.956,0.0
51968.0,STARLINK-3681,PAYLOAD,2024-05-14 04:42:57,15.06422599,0.0001538,53.0533,129.9491,118.819,241.2953,0.0010214,0.00014974,0.0,0 STARLINK-3681,1 51968U 22025N   24135.19649923  .00014974  00000-0  10214-2 0  9993,2 51968  53.0533 129.9491 0001538 118.8190 241.2953 15.06422599121924,6925.279,95.591,548.209,546.079,0.0
51968.0,STARLINK-3681,PAYLOAD,2024-05-14 09:29:34,15.06426665,0.0001218,53.0526,129.0587,101.1438,258.9688,0.00097749,0.00014319,0.0,0 STARLINK-3681,1 51968U 22025N   24135.39553775  .00014319  00000-0  97749-3 0  9996,2 51968  53.0526 129.0587 0001218 101.1438 258.9688 15.06426665120857,6925.267,95.59,547.975,546.288,0.0
51968.0,STARLINK-3681,PAYLOAD,2024-05-15 06:11:34,15.06427139,0.0001296,53.0528,125.186,95.7366,264.3771,0.00065971,9.566e-05,0.0,0 STARLINK-3681,1 51968U 22025N   24136.25803493  .00009566  00000-0  65971-3 0  9997,2 51968  53.0528 125.1860 0001296  95.7366 264.3771 15.06427139122082,6925.265,95.59,548.028,546.233,0.0
51968.0,STARLINK-3681,PAYLOAD,2024-05-15 09:22:38,15.06430614,0.0001182,53.0527,124.5911,100.2474,259.8648,0.00057134,8.246e-05,0.0,0 STARLINK-3681,1 51968U 22025N   24136.39072536  .00008246  00000-0  57134-3 0  9994,2 51968  53.0527 124.5911 0001182 100.2474 259.8648 15.06430614121002,6925.255,95.59,547.938,546.301,0.0
51968.0,STARLINK-3681,PAYLOAD,2024-05-16 04:29:06,15.06411276,0.0001533,53.0538,121.0148,116.4243,243.6904,1.1671e-05,-1.08e-06,0.0,0 STARLINK-3681,1 51968U 22025N   24137.18688486 -.00000108  00000-0  11671-4 0  9996,2 51968  53.0538 121.0148 0001533 116.4243 243.6904 15.06411276122225,6925.314,95.591,548.241,546.117,0.0
51968.0,STARLINK-3681,PAYLOAD,2024-05-16 07:40:11,15.06411268,0.0001184,53.0531,120.4215,91.0358,269.0767,3.7075e-05,2.71e-06,0.0,0 STARLINK-3681,1 51968U 22025N   24137.31957917  .00000271  00000-0  37075-4 0  9995,2 51968  53.0531 120.4215 0001184  91.0358 269.0767 15.06411268121143,6925.314,95.591,547.999,546.359,0.0
51968.0,STARLINK-3681,PAYLOAD,2024-05-16 15:37:53,15.06407454,0.0001145,53.0528,118.9317,85.6733,274.4387,8.9162e-06,-1.49e-06,0.0,0 STARLINK-3681,1 51968U 22025N   24137.65131309 -.00000149  00000-0  89162-5 0  9991,2 51968  53.0528 118.9317 0001145  85.6733 274.4387 15.06407454121192,6925.326,95.592,547.984,546.398,0.0
51968.0,STARLINK-3681,PAYLOAD,2024-05-17 04:22:12,15.06405763,0.0001313,53.0521,116.5486,87.6413,272.4726,2.4336e-05,8.1e-07,0.0,0 STARLINK-3681,1 51968U 22025N   24138.18208569  .00000081  00000-0  24336-4 0  9998,2 51968  53.0521 116.5486 0001313  87.6413 272.4726 15.06405763122377,6925.331,95.592,548.105,546.287,0.0
51968.0,STARLINK-3681,PAYLOAD,2024-05-17 05:57:44,15.06408444,0.0001273,53.0532,116.2523,89.7869,270.3266,9.1827e-05,1.087e-05,0.0,0 STARLINK-3681,1 51968U 22025N   24138.24843200  .00001087  00000-0  91827-4 0  9998,2 51968  53.0532 116.2523 0001273  89.7869 270.3266 15.06408444121285,6925.323,95.592,548.069,546.306,0.0
51968.0,STARLINK-3681,PAYLOAD,2024-05-17 15:30:58,15.06404205,0.0001386,53.0525,114.462,74.9077,285.2065,8.3208e-05,9.58e-06,0.0,0 STARLINK-3681,1 51968U 22025N   24138.64651349  .00000958  00000-0  83208-4 0  9993,2 51968  53.0525 114.4620 0001386  74.9077 285.2065 15.06404205121347,6925.336,95.592,548.161,546.241,0.0
51968.0,STARLINK-3681,PAYLOAD,2024-05-18 04:15:18,15.0638971,0.000183,53.0551,112.0795,82.9019,277.2178,-7.5468e-05,-1.405e-05,0.0,0 STARLINK-3681,1 51968U 22025N   24139.17729957 -.00001405  00000-0 -75468-4 0  9992,2 51968  53.0551 112.0795 0001830  82.9019 277.2178 15.06389710122522,6925.38,95.593,548.512,545.978,0.0
51968.0,STARLINK-3681,PAYLOAD,2024-05-18 07:26:23,15.06397228,0.0001572,53.0542,111.4818,75.2266,284.8897,5.9212e-05,6e-06,0.0,0 STARLINK-3681,1 51968U 22025N   24139.30998894  .00000600  00000-0  59212-4 0  9998,2 51968  53.0542 111.4818 0001572  75.2266 284.8897 15.06397228122540,6925.357,95.592,548.311,546.133,0.0
51968.0,STARLINK-3681,PAYLOAD,2024-05-18 15:24:04,15.063971,0.0001336,53.0536,109.9955,85.4229,274.6913,5.1008e-05,4.78e-06,0.0,0 STARLINK-3681,1 51968U 22025N   24139.64172292  .00000478  00000-0  51008-4 0  9999,2 51968  53.0536 109.9955 0001336  85.4229 274.6913 15.06397100121495,6925.357,95.592,548.148,546.297,0.0
51968.0,STARLINK-3681,PAYLOAD,2024-05-19 07:19:27,15.06409971,0.0001353,53.0529,107.0139,98.1813,261.933,0.00018241,2.437e-05,0.0,0 STARLINK-3681,1 51968U 22025N   24140.30518417  .00002437  00000-0  18241-3 0  9995,2 51968  53.0529 107.0139 0001353  98.1813 261.9330 15.06409971121592,6925.318,95.592,548.12,546.246,0.0
51968.0,STARLINK-3681,PAYLOAD,2024-05-20 04:01:29,15.06395688,0.0001414,53.0524,103.143,100.6004,259.5145,7.8335e-05,8.85e-06,0.0,0 STARLINK-3681,1 51968U 22025N   24141.16770377  .00000885  00000-0  78335-4 0  9991,2 51968  53.0524 103.1430 0001414 100.6004 259.5145 15.06395688122820,6925.362,95.592,548.206,546.248,0.0
51968.0,STARLINK-3681,PAYLOAD,2024-05-21 03:54:35,15.06392958,0.0001528,53.0537,98.6787,102.0745,258.0415,-7.5259e-05,-1.402e-05,0.0,0 STARLINK-3681,1 51968U 22025N   24142.16291225 -.00001402  00000-0 -75259-4 0  9992,2 51968  53.0537  98.6787 0001528 102.0745 258.0415 15.06392958122978,6925.37,95.593,548.293,546.177,0.0
51968.0,STARLINK-3681,PAYLOAD,2024-05-21 21:25:31,15.06393954,0.0001556,53.0537,95.4022,105.7333,254.3827,0.00016768,2.217e-05,0.0,0 STARLINK-3681,1 51968U 22025N   24142.89272982  .00002217  00000-0  16768-3 0  9993,2 51968  53.0537  95.4022 0001556 105.7333 254.3827 15.06393954121982,6925.367,95.593,548.31,546.155,0.0
